{"type":"FeatureCollection", "features": [
{"type":"Feature","geometry":{"type":"Polygon","coordinates":[[[-98.0762786738666,35.47723374349317],[-98.0743818355527,35.47196156581471],[-98.07142751434465,35.46755425563491],[-98.0666441118539,35.46108768903548],[-98.06551979966983,35.4584039542608],[-98.06130153724449,35.45094553452613],[-98.05752170010194,35.44787313638531],[-98.05322339396871,35.44545196262589],[-98.04388160718231,35.44204605004567],[-98.03283569729174,35.43764015822922],[-98.02564419744327,35.43555948674313],[-98.01626163838434,35.4357132587018],[-97.99951856724145,35.43805276241164],[-97.98032506260623,35.44326242801239],[-97.97241304565647,35.44350000544618],[-97.96536568565776,35.44216299925888],[-97.95544954749614,35.43995894061204],[-97.93964832511264,35.43773933994766],[-97.92799824688403,35.43882953874589],[-97.91633774541651,35.4425676265274],[-97.90910198792126,35.44609907290424],[-97.90186589350378,35.44949141782438],[-97.8893496442676,35.45579122476982],[-97.88108704385724,35.46153909331351],[-97.87558045666303,35.46775735020469],[-97.87447521562034,35.47066618820505],[-97.86548542707348,35.48486617040587],[-97.85944701308271,35.49122065636823],[-97.85696618380946,35.49299839222583],[-97.85244195600436,35.49607954545839],[-97.84740139735136,35.49827452563027],[-97.84383165036694,35.5002385442429],[-97.84550071431566,35.50532982231862],[-97.8473192786096,35.5080613739045],[-97.85015973682631,35.51020039686932],[-97.85628268526553,35.51157078065127],[-97.8615318217883,35.51193133473399],[-97.87158989083665,35.51401630943907],[-97.87363098790031,35.51413654539],[-97.88179500953366,35.51467656508144],[-97.89871391941645,35.50655889659191],[-97.90280215499466,35.49872952488675],[-97.90491767805418,35.49623879849192],[-97.90702411486797,35.49440006608514],[-97.91578276479329,35.48742198851168],[-97.92453111569075,35.48024635729023],[-97.9353151592032,35.47567017678911],[-97.94311154282363,35.47359567825812],[-97.95568776695616,35.47086819422806],[-97.97290203237529,35.46996780524183],[-97.98995322906951,35.46673671617079],[-97.99213110773086,35.46574664328649],[-97.99948931442593,35.46267020427761],[-98.00600919207677,35.4602356484459],[-98.01515092808586,35.45948744807362],[-98.0265492745069,35.45913460842294],[-98.0356950592664,35.46007293428503],[-98.04175339563795,35.46263006054444],[-98.04441749658365,35.46373247139311],[-98.04698329016816,35.46643432557829],[-98.04826969526009,35.46916539507875],[-98.0498471663534,35.47125481472224],[-98.05267869611782,35.47301068924768],[-98.05650527983386,35.47500870537873],[-98.05859544972864,35.47617855057192],[-98.06193544257773,35.47913958432771],[-98.06589146873075,35.48124541601538],[-98.0725812008563,35.48932765913794],[-98.07585306544352,35.48912209194801],[-98.07695983764809,35.48726062281918],[-98.0771968856161,35.48323897128923],[-98.0762786738666,35.47723374349317]]]},"properties":{"name":"Tornado Contour","styleUrl":"#msn_ylw-pushpin","fill-opacity":0.45098039215686275,"fill":"#aaaaff","stroke-opacity":1,"stroke":"#aaaaff","stroke-width":5,"icon-scale":1.1,"icon-offset":[20,2],"icon-offset-units":["pixels","pixels"],"icon":"http://maps.google.com/mapfiles/kml/pushpin/ylw-pushpin.png"}}
]}